start=new Date('2022-08-20T00:00:00.000Z').valueOf();
sats=[{"MEAN_MOTION_DOT":"-0.01217217","CENTER_NAME":"EARTH","CLASSIFICATION_TYPE":"U","MEAN_MOTION_DDOT":"0.0000000000000","SEMIMAJOR_AXIS":"6807.728","ARG_OF_PERICENTER":"122.9693","PERIAPSIS":"428.355","FILE":"3540705","SITE":"AFWTR","EPOCH":"2022-08-19T22:00:00.999936","ELEMENT_SET_NO":"999","REF_FRAME":"TEME","MEAN_MOTION":"15.45608397","OBJECT_NAME":"STARLINK-4375","REV_AT_EPOCH":"130","LAUNCH_DATE":"2022-07-22","MEAN_ANOMALY":"268.4877","GP_ID":"210550226","RA_OF_ASC_NODE":"291.6388","EPHEMERIS_TYPE":"0","OBJECT_ID":"2022-084D","INCLINATION":"97.6557","PERIOD":"93.167","DECAY_DATE":null,"APOAPSIS":"430.831","OBJECT_TYPE":"PAYLOAD","ECCENTRICITY":"0.00018180","COUNTRY_CODE":"US","RCS_SIZE":"LARGE","NORAD_CAT_ID":"53192","BSTAR":"-0.02784100000000","TLE_LINE1":"1 53192U 22084D   22231.91667824 -.01217217  00000-0 -27841-1 0  9995","TIME_SYSTEM":"UTC","TLE_LINE2":"2 53192  97.6557 291.6388 0001818 122.9693 268.4877 15.45608397  1302","MEAN_ELEMENT_THEORY":"SGP4"},{"EPHEMERIS_TYPE":"0","RA_OF_ASC_NODE":"291.6381","OBJECT_ID":"2022-084E","INCLINATION":"97.6556","PERIOD":"92.889","DECAY_DATE":null,"APOAPSIS":"417.203","OBJECT_TYPE":"PAYLOAD","ECCENTRICITY":"0.00016960","COUNTRY_CODE":"US","RCS_SIZE":"LARGE","NORAD_CAT_ID":"53193","BSTAR":"-0.02375600000000","TLE_LINE1":"1 53193U 22084E   22231.91667824 -.01220239  00000-0 -23756-1 0  9995","TIME_SYSTEM":"UTC","MEAN_ELEMENT_THEORY":"SGP4","TLE_LINE2":"2 53193  97.6556 291.6381 0001696 110.6092 299.1763 15.50231856  1309","MEAN_MOTION_DOT":"-0.01220239","CENTER_NAME":"EARTH","CLASSIFICATION_TYPE":"U","MEAN_MOTION_DDOT":"0.0000000000000","SEMIMAJOR_AXIS":"6794.186","ARG_OF_PERICENTER":"110.6092","PERIAPSIS":"414.898","FILE":"3540705","SITE":"AFWTR","EPOCH":"2022-08-19T22:00:00.999936","ELEMENT_SET_NO":"999","REF_FRAME":"TEME","MEAN_MOTION":"15.50231856","REV_AT_EPOCH":"130","OBJECT_NAME":"STARLINK-4351","LAUNCH_DATE":"2022-07-22","GP_ID":"210549530","MEAN_ANOMALY":"299.1763"},{"ARG_OF_PERICENTER":"102.5236","PERIAPSIS":"430.206","SITE":"AFWTR","FILE":"3540705","EPOCH":"2022-08-19T22:00:00.999936","ELEMENT_SET_NO":"999","REF_FRAME":"TEME","MEAN_MOTION":"15.45017435","REV_AT_EPOCH":"130","OBJECT_NAME":"STARLINK-4382","LAUNCH_DATE":"2022-07-22","MEAN_ANOMALY":"281.9196","GP_ID":"210550517","MEAN_MOTION_DOT":"-0.01217296","CENTER_NAME":"EARTH","CLASSIFICATION_TYPE":"U","MEAN_MOTION_DDOT":"0.0000000000000","SEMIMAJOR_AXIS":"6809.464","ECCENTRICITY":"0.00016490","COUNTRY_CODE":"US","NORAD_CAT_ID":"53194","RCS_SIZE":"LARGE","TLE_LINE1":"1 53194U 22084F   22231.91667824 -.01217296  00000-0 -28414-1 0  9991","BSTAR":"-0.02841400000000","TIME_SYSTEM":"UTC","MEAN_ELEMENT_THEORY":"SGP4","TLE_LINE2":"2 53194  97.6557 291.6399 0001649 102.5236 281.9196 15.45017435  1306","RA_OF_ASC_NODE":"291.6399","EPHEMERIS_TYPE":"0","OBJECT_ID":"2022-084F","INCLINATION":"97.6557","PERIOD":"93.203","DECAY_DATE":null,"APOAPSIS":"432.452","OBJECT_TYPE":"PAYLOAD"},{"REF_FRAME":"TEME","ELEMENT_SET_NO":"999","MEAN_MOTION":"15.45608537","OBJECT_NAME":"STARLINK-4404","REV_AT_EPOCH":"130","LAUNCH_DATE":"2022-07-22","GP_ID":"210549671","MEAN_ANOMALY":"269.7644","ARG_OF_PERICENTER":"122.4190","PERIAPSIS":"428.360","FILE":"3540705","SITE":"AFWTR","EPOCH":"2022-08-19T22:00:00.999936","MEAN_MOTION_DDOT":"0.0000000000000","SEMIMAJOR_AXIS":"6807.728","MEAN_MOTION_DOT":"-0.01217220","CENTER_NAME":"EARTH","CLASSIFICATION_TYPE":"U","RCS_SIZE":"LARGE","NORAD_CAT_ID":"53195","TLE_LINE1":"1 53195U 22084G   22231.91667824 -.01217220  00000-0 -27841-1 0  9992","BSTAR":"-0.02784100000000","TIME_SYSTEM":"UTC","TLE_LINE2":"2 53195  97.6557 291.6377 0001811 122.4190 269.7644 15.45608537  1305","MEAN_ELEMENT_THEORY":"SGP4","ECCENTRICITY":"0.00018110","COUNTRY_CODE":"US","PERIOD":"93.167","DECAY_DATE":null,"APOAPSIS":"430.825","OBJECT_TYPE":"PAYLOAD","RA_OF_ASC_NODE":"291.6377","EPHEMERIS_TYPE":"0","OBJECT_ID":"2022-084G","INCLINATION":"97.6557"},{"MEAN_MOTION_DOT":"-0.01217407","CENTER_NAME":"EARTH","CLASSIFICATION_TYPE":"U","MEAN_MOTION_DDOT":"0.0000000000000","SEMIMAJOR_AXIS":"6808.268","ARG_OF_PERICENTER":"108.9212","PERIAPSIS":"428.988","FILE":"3540705","SITE":"AFWTR","EPOCH":"2022-08-19T22:00:00.999936","ELEMENT_SET_NO":"999","REF_FRAME":"TEME","MEAN_MOTION":"15.45424649","OBJECT_NAME":"STARLINK-4407","REV_AT_EPOCH":"130","LAUNCH_DATE":"2022-07-22","GP_ID":"210549812","MEAN_ANOMALY":"280.3565","RA_OF_ASC_NODE":"291.6392","EPHEMERIS_TYPE":"0","OBJECT_ID":"2022-084H","INCLINATION":"97.6557","PERIOD":"93.178","DECAY_DATE":null,"APOAPSIS":"431.277","OBJECT_TYPE":"PAYLOAD","ECCENTRICITY":"0.00016810","COUNTRY_CODE":"US","NORAD_CAT_ID":"53196","RCS_SIZE":"LARGE","BSTAR":"-0.02802300000000","TLE_LINE1":"1 53196U 22084H   22231.91667824 -.01217407  00000-0 -28023-1 0  9993","TIME_SYSTEM":"UTC","MEAN_ELEMENT_THEORY":"SGP4","TLE_LINE2":"2 53196  97.6557 291.6392 0001681 108.9212 280.3565 15.45424649  1303"},{"CLASSIFICATION_TYPE":"U","CENTER_NAME":"EARTH","MEAN_MOTION_DOT":"-0.01218106","SEMIMAJOR_AXIS":"6805.830","MEAN_MOTION_DDOT":"0.0000000000000","EPOCH":"2022-08-19T22:00:00.999936","FILE":"3540705","SITE":"AFWTR","PERIAPSIS":"426.556","ARG_OF_PERICENTER":"106.9353","GP_ID":"210549944","MEAN_ANOMALY":"292.1603","LAUNCH_DATE":"2022-07-22","REV_AT_EPOCH":"130","OBJECT_NAME":"STARLINK-4403","MEAN_MOTION":"15.46255088","ELEMENT_SET_NO":"999","REF_FRAME":"TEME","INCLINATION":"97.6557","OBJECT_ID":"2022-084J","EPHEMERIS_TYPE":"0","RA_OF_ASC_NODE":"291.6367","OBJECT_TYPE":"PAYLOAD","APOAPSIS":"428.833","DECAY_DATE":null,"PERIOD":"93.128","COUNTRY_CODE":"US","ECCENTRICITY":"0.00016730","MEAN_ELEMENT_THEORY":"SGP4","TLE_LINE2":"2 53197  97.6557 291.6367 0001673 106.9353 292.1603 15.46255088  1305","TIME_SYSTEM":"UTC","BSTAR":"-0.02725100000000","TLE_LINE1":"1 53197U 22084J   22231.91667824 -.01218106  00000-0 -27251-1 0  9993","NORAD_CAT_ID":"53197","RCS_SIZE":"LARGE"},{"EPOCH":"2022-08-19T22:00:00.999936","FILE":"3540705","SITE":"AFWTR","PERIAPSIS":"427.085","ARG_OF_PERICENTER":"107.0815","GP_ID":"210550369","MEAN_ANOMALY":"289.3027","OBJECT_NAME":"STARLINK-4385","REV_AT_EPOCH":"130","LAUNCH_DATE":"2022-07-22","MEAN_MOTION":"15.46075216","ELEMENT_SET_NO":"999","REF_FRAME":"TEME","CENTER_NAME":"EARTH","CLASSIFICATION_TYPE":"U","MEAN_MOTION_DOT":"-0.01217963","SEMIMAJOR_AXIS":"6806.358","MEAN_MOTION_DDOT":"0.0000000000000","ECCENTRICITY":"0.00016720","COUNTRY_CODE":"US","TIME_SYSTEM":"UTC","MEAN_ELEMENT_THEORY":"SGP4","TLE_LINE2":"2 53198  97.6557 291.6378 0001672 107.0815 289.3027 15.46075216  1303","TLE_LINE1":"1 53198U 22084K   22231.91667824 -.01217963  00000-0 -27417-1 0  9998","BSTAR":"-0.02741700000000","RCS_SIZE":"LARGE","NORAD_CAT_ID":"53198","INCLINATION":"97.6557","OBJECT_ID":"2022-084K","RA_OF_ASC_NODE":"291.6378","EPHEMERIS_TYPE":"0","OBJECT_TYPE":"PAYLOAD","DECAY_DATE":null,"APOAPSIS":"429.361","PERIOD":"93.139"},{"RA_OF_ASC_NODE":"291.6354","EPHEMERIS_TYPE":"0","OBJECT_ID":"2022-084L","INCLINATION":"97.6557","PERIOD":"93.103","APOAPSIS":"427.622","DECAY_DATE":null,"OBJECT_TYPE":"PAYLOAD","COUNTRY_CODE":"US","ECCENTRICITY":"0.00017120","RCS_SIZE":"LARGE","NORAD_CAT_ID":"53199","BSTAR":"-0.02685900000000","TLE_LINE1":"1 53199U 22084L   22231.91667824 -.01218217  00000-0 -26859-1 0  9991","MEAN_ELEMENT_THEORY":"SGP4","TLE_LINE2":"2 53199  97.6557 291.6354 0001712 112.4044 290.9251 15.46677010  1304","TIME_SYSTEM":"UTC","MEAN_MOTION_DOT":"-0.01218217","CLASSIFICATION_TYPE":"U","CENTER_NAME":"EARTH","MEAN_MOTION_DDOT":"0.0000000000000","SEMIMAJOR_AXIS":"6804.592","ARG_OF_PERICENTER":"112.4044","PERIAPSIS":"425.292","FILE":"3540705","SITE":"AFWTR","EPOCH":"2022-08-19T22:00:00.999936","ELEMENT_SET_NO":"999","REF_FRAME":"TEME","MEAN_MOTION":"15.46677010","LAUNCH_DATE":"2022-07-22","REV_AT_EPOCH":"130","OBJECT_NAME":"STARLINK-4395","GP_ID":"210550085","MEAN_ANOMALY":"290.9251"},{"CENTER_NAME":"EARTH","CLASSIFICATION_TYPE":"U","MEAN_MOTION_DOT":"-0.01218162","MEAN_MOTION_DDOT":"0.0000000000000","SEMIMAJOR_AXIS":"6806.018","FILE":"3540705","SITE":"AFWTR","EPOCH":"2022-08-19T22:00:00.999936","ARG_OF_PERICENTER":"104.3326","PERIAPSIS":"426.754","REV_AT_EPOCH":"130","OBJECT_NAME":"STARLINK-4417","LAUNCH_DATE":"2022-07-22","GP_ID":"210550227","MEAN_ANOMALY":"293.5914","ELEMENT_SET_NO":"999","REF_FRAME":"TEME","MEAN_MOTION":"15.46190768","INCLINATION":"97.6557","RA_OF_ASC_NODE":"291.6377","EPHEMERIS_TYPE":"0","OBJECT_ID":"2022-084M","OBJECT_TYPE":"PAYLOAD","PERIOD":"93.132","DECAY_DATE":null,"APOAPSIS":"429.013","ECCENTRICITY":"0.00016600","COUNTRY_CODE":"US","TIME_SYSTEM":"UTC","MEAN_ELEMENT_THEORY":"SGP4","TLE_LINE2":"2 53200  97.6557 291.6377 0001660 104.3326 293.5914 15.46190768  1302","RCS_SIZE":"LARGE","NORAD_CAT_ID":"53200","TLE_LINE1":"1 53200U 22084M   22231.91667824 -.01218162  00000-0 -27313-1 0  9999","BSTAR":"-0.02731300000000"},{"CLASSIFICATION_TYPE":"U","CENTER_NAME":"EARTH","MEAN_MOTION_DOT":"-0.01218438","SEMIMAJOR_AXIS":"6804.091","MEAN_MOTION_DDOT":"0.0000000000000","EPOCH":"2022-08-19T22:00:00.999936","FILE":"3540705","SITE":"AFWTR","PERIAPSIS":"424.802","ARG_OF_PERICENTER":"109.8581","MEAN_ANOMALY":"295.9787","GP_ID":"210549531","LAUNCH_DATE":"2022-07-22","OBJECT_NAME":"STARLINK-4405","REV_AT_EPOCH":"130","MEAN_MOTION":"15.46847873","ELEMENT_SET_NO":"999","REF_FRAME":"TEME","INCLINATION":"97.6557","OBJECT_ID":"2022-084N","EPHEMERIS_TYPE":"0","RA_OF_ASC_NODE":"291.6344","OBJECT_TYPE":"PAYLOAD","APOAPSIS":"427.110","DECAY_DATE":null,"PERIOD":"93.093","COUNTRY_CODE":"US","ECCENTRICITY":"0.00016960","TLE_LINE2":"2 53201  97.6557 291.6344 0001696 109.8581 295.9787 15.46847873  1309","MEAN_ELEMENT_THEORY":"SGP4","TIME_SYSTEM":"UTC","TLE_LINE1":"1 53201U 22084N   22231.91667824 -.01218438  00000-0 -26706-1 0  9991","BSTAR":"-0.02670600000000","RCS_SIZE":"LARGE","NORAD_CAT_ID":"53201"}];
